OPTICUBE 04             
1 41851U 16067D   19161.25733699 -.00000221  00000-0 -14006-4 0  9993
2 41851  97.9154 258.7669 0009890  57.6793 302.5385 14.96801461140654
AEROCUBE 8D             
1 41852U 16067E   19162.19555350  .00000063  00000-0  10786-4 0  9997
2 41852  97.9164 259.5414 0010575  55.3107 304.9109 14.96708045140776
AEROCUBE 8C             
1 41853U 16067F   19161.21546393  .00000704  00000-0  66965-4 0  9999
2 41853  97.9167 258.4862 0011280  60.7102 299.5245 14.96674043140628
PROMETHEUS 2-1          
1 41854U 16067G   19161.25086769 -.00000198  00000-0 -11907-4 0  9995
2 41854  97.9174 258.6530 0011414  58.0281 302.2048 14.96887935140638
PROMETHEUS 2-3          
1 41855U 16067H   19161.52062179 -.00000086  00000-0 -21627-5 0  9992
2 41855  97.9176 258.9414 0011517  57.5528 302.6805 14.96892007140672
INS-1B                  
1 41954U 17008G   19162.01022757  .00001115  00000-0  49022-4 0  9991
2 41954  97.4003 227.1533 0009673 162.5892 197.5679 15.23923326128639
BGUSAT                  
1 41999U 17008BD  19161.41507662  .00001878  00000-0  75674-4 0  9994
2 41999  97.4075 228.8970 0008237 176.1764 183.9539 15.26074202128035
DIDO-2                  
1 42000U 17008BE  19161.93343090  .00000781  00000-0  35277-4 0  9995
2 42000  97.4015 227.6229 0008442 180.3336 179.7897 15.23880809128021
PEASSS                  
1 42015U 17008BV  19161.18020658  .00000972  00000-0  42013-4 0  9998
2 42015  97.4023 227.8217 0006120 184.5731 175.5452 15.24837349128451
AL-FARABI 1             
1 42016U 17008BW  19161.96971821  .00001244  00000-0  51985-4 0  9993
2 42016  97.4037 229.1334 0006121 180.4322 179.6912 15.25466119128724
NAYIF-1 (EO-88)         
1 42017U 17008BX  19161.62942807  .00001271  00000-0  53014-4 0  9994
2 42017  97.4036 228.8064 0006043 181.6116 178.5104 15.25498559128697
ALTAIR PATHFINDER       
1 42711U 98067LS  19162.00811656  .00033842  00000-0  17889-3 0  9997
2 42711  51.6350 329.6178 0001979 128.0458 232.0722 15.80267758117878
ZA-AEROSAT              
1 42713U 98067LU  19151.03730059  .02928871  12128-4  58594-3 0  9990
2 42713  51.6172 356.2792 0012791 275.7272  84.2292 16.30383675116521
NJUST-1                 
1 42722U 98067MB  19161.66479338  .00161612  21957-4  33158-3 0  9999
2 42722  51.6340 311.0949 0003882 248.9246 201.1180 15.98983037117152
NSIGHT                  
1 42726U 98067MF  19162.07844045  .00018607  00000-0  14907-3 0  9998
2 42726  51.6371 347.6469 0005090 146.4792 213.6528 15.71087360116623
UCLSAT                  
1 42765U 17036A   19161.65139466  .00000931  00000-0  42877-4 0  9994
2 42765  97.3515 219.8334 0009767 255.7862 104.2290 15.22718380109836
LITUANICASAT-2          
1 42768U 17036D   19161.63047155  .00001625  00000-0  72481-4 0  9993
2 42768  97.3550 219.4101 0013525 245.3748 114.6081 15.22751799109082
AALTO-1                 
1 42775U 17036L   19161.63799667  .00000617  00000-0  30597-4 0  9995
2 42775  97.3500 218.5882 0012444 245.6259 114.3678 15.21319877108983
URSA MAIOR              
1 42776U 17036M   19161.59945473  .00000678  00000-0  33178-4 0  9994
2 42776  97.3510 218.6953 0012257 245.6623 114.3333 15.21450485108981
COMPASS 2               
1 42777U 17036N   19161.64927436  .00001313  00000-0  59005-4 0  9994
2 42777  97.3549 219.8875 0010941 246.1359 113.8732 15.22856407109040
DIAMOND RED             
1 42783U 17036U   19161.10216439  .00000906  00000-0  42449-4 0  9997
2 42783  97.3516 218.9052 0010452 259.3256 100.6803 15.22177078108948
PEGASUS                 
1 42784U 17036V   19161.60869574  .00000886  00000-0  41243-4 0  9995
2 42784  97.3520 219.6157 0010364 256.7221 103.2860 15.22466778109034
DIAMOND GREEN           
1 42785U 17036W   19162.08704055  .00000816  00000-0  38520-4 0  9998
2 42785  97.3517 219.8921 0010369 256.0533 103.9550 15.22179267109088
DIAMOND BLUE            
1 42786U 17036X   19162.08611859  .00000799  00000-0  37796-4 0  9992
2 42786  97.3517 219.8896 0010212 256.3138 103.6961 15.22176432109085
NUDTSAT                 
1 42787U 17036Y   19161.94008526  .00001347  00000-0  59485-4 0  9997
2 42787  97.3539 220.6015 0009728 258.3863 101.6284 15.23416760108964
SUCHAI                  
1 42788U 17036Z   19161.15804523  .00001096  00000-0  49708-4 0  9990
2 42788  97.3525 219.4673 0009931 257.5831 102.4295 15.22876086109050
SKCUBE                  
1 42789U 17036AA  19161.63324015  .00001001  00000-0  45775-4 0  9993
2 42789  97.3521 219.8773 0009811 255.6789 104.3359 15.22779156109041
VZLUSAT-1               
1 42790U 17036AB  19161.40143512  .00001379  00000-0  60830-4 0  9998
2 42790  97.3536 220.0787 0009352 255.4108 104.6092 15.23416637109030
ROBUSTA-1B              
1 42792U 17036AD  19162.09061955  .00001048  00000-0  47575-4 0  9990
2 42792  97.3520 220.4702 0009385 254.5654 105.4547 15.22944869109135
CICERO 6                
1 42793U 17036AE  19161.62268118  .00000712  00000-0  33658-4 0  9993
2 42793  97.3505 219.8060 0008617 258.5320 101.4949 15.22554165109126
D-SAT                   
1 42794U 17036AF  19162.09045593  .00000218  00000-0  24280-4 0  9998
2 42794  97.5399 207.1288 0127038 166.3220 194.1495 14.91090252107205
NIGERIAEDUSAT-1         
1 42824U 98067MY  19133.12526632  .12220275  12529-4  51637-3 0  9993
2 42824  51.6091  92.5367 0003545 299.4874 174.6355 16.43636834105973
CORVUS BC2              
1 42846U 17042X   19161.63110011  .00000031  00000-0  83826-5 0  9995
2 42846  97.5669  55.9548 0011247  82.8823 277.3675 14.91969835103815
CORVUS BC1              
1 42847U 17042Y   19161.65194475  .00000305  00000-0  35281-4 0  9999
2 42847  97.5670  56.0798 0010852  82.4188 277.8264 14.92070105103811
MIRATA                  
1 43015U 17073C   19161.36269657  .00000485  00000-0  43415-4 0  9991
2 43015  97.7199  82.9026 0255187 184.6158 175.2700 14.78957945 84064
MAKERSAT 0              
1 43016U 17073D   19161.30777268  .00000349  00000-0  32714-4 0  9997
2 43016  97.7231  83.0481 0257391 185.1354 174.7211 14.78719231 84056
ASTERIA                 
1 43020U 98067NH  19161.96989476  .00021861  00000-0  18013-3 0  9999
2 43020  51.6432 359.1223 0002359 103.4316 256.6944 15.70297021 88640
DELLINGR (RBLE)         
1 43021U 98067NJ  19161.20777684  .00008170  00000-0  94005-4 0  9997
2 43021  51.6394  14.9296 0002818  83.1145 277.0169 15.62991161 88360
AEROCUBE 7B (OCSD B)    
1 43042U 17071F   19162.17703509  .00002413  00000-0  67009-4 0  9996
2 43042  51.6385  89.6566 0005166 121.5738 238.5752 15.41139275 84921
AEROCUBE 7C (OCSD C)    
1 43043U 17071G   19162.17707149  .00002460  00000-0  68117-4 0  9994
2 43043  51.6386  89.6705 0005338 125.5194 234.6289 15.41143322 84895
CHEFSAT                 
1 43044U 17071H   19162.18010078  .00005036  00000-0  11869-3 0  9997
2 43044  51.6387  84.5532 0005201 122.1399 238.0092 15.43743303 84963
ASGARDIA 1              
1 43049U 17071N   19162.19444823  .00002524  00000-0  69336-4 0  9994
2 43049  51.6393  89.0649 0002736 134.5708 225.5501 15.41270931 84893
ISARA                   
1 43050U 17071P   19162.19339024  .00004662  00000-0  11235-3 0  9991
2 43050  51.6379  85.3518 0002640 127.9961 232.1264 15.43251952 84944
PROPCUBE 2 (FAUNA)      
1 43052U 17071R   19161.22909506  .00002915  00000-0  77893-4 0  9996
2 43052  51.6392  93.1364 0002716 126.8511 233.2724 15.41539881 84750
CORVUS BC3              
1 43118U 18004H   19161.65493525  .00000640  00000-0  30383-4 0  9998
2 43118  97.4869 229.0384 0008795 282.0792  77.9459 15.22827878 78252
MICROMAS-2A             
1 43131U 18004W   19161.99619794  .00001521  00000-0  65614-4 0  9992
2 43131  97.4895 230.0481 0007738 282.7366  77.3006 15.24085780 78348
CICERO 7                
1 43143U 18004AJ  19161.49511016  .00001256  00000-0  54479-4 0  9990
2 43143  97.4882 229.7615 0006010 297.9513  62.1115 15.24223893 78280
GOMX-4B                 
1 43196U 18015E   19162.21862432  .00000204  00000-0  11367-4 0  9993
2 43196  97.3881 289.8627 0019319 337.7989  22.2411 15.23933302 75209
GOMX-4A                 
1 43197U 18015F   19162.22195698  .00000336  00000-0  16773-4 0  9990
2 43197  97.3908 289.8920 0018515 339.7428 136.2761 15.24028134 75217
1KUNS-PF                
1 43466U 98067NP  19162.00133168  .00016764  00000-0  16627-3 0  9993
2 43466  51.6384  13.4550 0001493 115.9425 244.1725 15.65927486 61717
UBAKUSAT                
1 43467U 98067NQ  19161.99430416  .00009676  00000-0  11171-3 0  9990
2 43467  51.6384  17.1567 0002636  61.5461 298.5799 15.62644092 61678
BATSU-CS1 (IRAZU)       
1 43468U 98067NR  19162.00417301  .00024150  00000-0  21229-3 0  9991
2 43468  51.6373  10.4537 0001460 130.7559 229.3565 15.68653988161743
CUBERRT                 
1 43546U 98067NU  19161.97553648  .00024758  00000-0  25897-3 0  9997
2 43546  51.6390  18.5293 0005654 106.5275 253.6341 15.64280879 51787
TEMPEST-D               
1 43547U 98067NV  19162.03031140  .00003785  00000-0  56311-4 0  9997
2 43547  51.6393  24.8937 0006353  95.4339 264.7378 15.57906852 51387
RAINCUBE                
1 43548U 98067NW  19161.98230855  .00009877  00000-0  12007-3 0  9996
2 43548  51.6381  21.5606 0006276 107.6872 252.4808 15.61256071 51876
HALOSAT                 
1 43549U 98067NX  19161.98592552  .00011502  00000-0  13914-3 0  9998
2 43549  51.6388  21.5948 0006195 109.4457 250.7206 15.61188572 51437
ENDUROSAT ONE           
1 43551U 98067NZ  19161.05548776  .00014065  00000-0  15947-3 0  9993
2 43551  51.6385  24.3852 0006563 114.6853 245.4825 15.62657713 51728
EQUISAT                 
1 43552U 98067PA  19161.98901000  .00009747  00000-0  11743-3 0  9990
2 43552  51.6399  20.8874 0006841 116.2244 243.9453 15.61506599 51814
AEROCUBE 12A            
1 43556U 18046C   19162.19941635  .00001296  00000-0  58426-4 0  9996
2 43556  51.6433  92.5916 0008937  45.3564 314.8143 15.28690908 50415
